[ {"name": "DUBAISAT-1", "line1": "1 35682U 09041B   26155.26874284  .00001097  00000+0  17012-3 0  9998", "line2": "2 35682  98.0036 288.6695 0011696 110.3318 249.9149 14.75103282903199"}, {"name": "OCEANSAT-2", "line1": "1 35931U 09051A   26156.18993738  .00000191  00000+0  15631-3 0  9993", "line2": "2 35931  98.2322 144.2383 0014544 273.0051  86.9452 13.99662816877658"}, {"name": "WORLDVIEW-2 (WV-2)", "line1": "1 35946U 09055A   26156.05581059  .00000158  00000+0  66928-4 0  9997", "line2": "2 35946  98.4737 229.6724 0003176 253.4392 106.6446 14.37895845873902"}, {"name": "SMOS", "line1": "1 36036U 09059A   26156.02777041  .00000276  00000+0  10193-3 0  9990", "line2": "2 36036  98.4426 343.5408 0001351  92.1515 267.9828 14.39765937871702"}, {"name": "YAOGAN-7", "line1": "1 36110U 09069A   26155.69973087  .00000630  00000+0  94170-4 0  9996", "line2": "2 36110  98.0085  41.6431 0026007  80.1150 280.2994 14.77996983887787"}, {"name": "TANDEM-X", "line1": "1 36605U 10030A   26152.44920715  .00000743  00000+0  38591-4 0  9995", "line2": "2 36605  97.4445 160.3804 0001783  80.8335 279.3101 15.19149361884253"}, {"name": "CARTOSAT-2B", "line1": "1 36795U 10035A   26156.15905200  .00000671  00000+0  98766-4 0  9994", "line2": "2 36795  97.9953 206.7844 0010295 225.4697 134.5674 14.78645198858078"}, {"name": "YAOGAN-10", "line1": "1 36834U 10038A   26156.22669279  .00001882  00000+0  22526-3 0  9997", "line2": "2 36834  97.8975 179.7263 0001619  88.8225 340.0686 14.85310536855434"}, {"name": "COSMO-SKYMED 4", "line1": "1 37216U 10060A   26156.15682198  .00000699  00000+0  94323-4 0  9994", "line2": "2 37216  97.8884 339.9310 0001446  82.6824 277.4553 14.82160670842785"}, {"name": "RESOURCESAT-2", "line1": "1 37387U 11015A   26156.05357285  .00000107  00000+0  68797-4 0  9999", "line2": "2 37387  98.7646 223.5787 0010181 294.5838  65.4278 14.21603797784454"}, {"name": "HAIYANG-2A", "line1": "1 37781U 11043A   26156.24590775  .00000149  00000+0  20319-3 0  9995", "line2": "2 37781  99.3390 159.1844 0006350 114.8945 245.2865 13.74586740745013"}, {"name": "RASAT", "line1": "1 37791U 11044D   26156.18740882  .00000805  00000+0  14815-3 0  9999", "line2": "2 37791  98.0573 247.7672 0019391 228.3554 219.2051 14.68155696791422"}, {"name": "SRMSAT", "line1": "1 37841U 11058D   26155.28992141  .00000393  00000+0  69540-4 0  9995", "line2": "2 37841  19.9702 137.5332 0011913  62.8275  26.7062 14.11572942755996"}, {"name": "PLEIADES 1A", "line1": "1 38012U 11076F   26156.19345152  .00000395  00000+0  94880-4 0  9998", "line2": "2 38012  98.1976 231.4567 0001472  98.7677 346.0603 14.58563425770247"}, {"name": "ZIYUAN 1-02C (ZY 1-02C)", "line1": "1 38038U 11079A   26156.18344257  .00000408  00000+0  14843-3 0  9998", "line2": "2 38038  98.4072 223.7420 0006259 355.7760  89.5207 14.38204732757485"}, {"name": "ARIRANG-3 (KOMPSAT-3)", "line1": "1 38338U 12025B   26156.19417402  .00000469  00000+0  10231-3 0  9991", "line2": "2 38338  98.1171 113.8617 0006100 140.4528 219.7119 14.62195130749598"}, {"name": "EXACTVIEW-1 (ADS-1B)", "line1": "1 38709U 12039C   26156.09347492  .00000153  00000+0  85083-4 0  9996", "line2": "2 38709  98.9764 273.2113 0010499 201.1276 158.9470 14.24980976720983"}, {"name": "SPOT 6", "line1": "1 38755U 12047A   26156.19258097  .00000445  00000+0  10569-3 0  9999", "line2": "2 38755  98.2120 223.6409 0001393  93.7638 266.3721 14.58556047731306"}, {"name": "PLEIADES 1B", "line1": "1 39019U 12068A   26156.14287377  .00000411  00000+0  98276-4 0  9999", "line2": "2 39019  98.1946 231.3598 0001527  95.4247 264.7126 14.58553150719099"}, {"name": "GOKTURK 2", "line1": "1 39030U 12073A   26156.14565619  .00000491  00000+0  79017-4 0  9996", "line2": "2 39030  97.6820 354.1804 0001987  63.0998 297.0415 14.75530395722735"}, {"name": "LANDSAT 8", "line1": "1 39084U 13008A   26156.07616220  .00000393  00000+0  97401-4 0  9999", "line2": "2 39084  98.2303 226.3548 0001452  97.5582 262.5781 14.57110594696132"}, {"name": "SARAL", "line1": "1 39086U 13009A   26156.09985366  .00000079  00000+0  44994-4 0  9994", "line2": "2 39086  98.5558 342.8204 0001397   1.8850 358.2339 14.32852953693871"}, {"name": "GAOFEN-1", "line1": "1 39150U 13018A   26156.20370721 -.00000181  00000+0 -18541-4 0  9997", "line2": "2 39150  97.9095 228.5143 0016078 308.7290  51.2482 14.76521644706471"}, {"name": "VNREDSAT 1", "line1": "1 39160U 13021B   26156.13522831  .00000723  00000+0  14394-3 0  9996", "line2": "2 39160  97.9081 210.0136 0001632  91.2433 268.8957 14.64844418698521"}, {"name": "ARIRANG-5 (KOMPSAT-5)", "line1": "1 39227U 13042A   26156.19451394  .00002142  00000+0  15714-3 0  9998", "line2": "2 39227  97.6204 343.0626 0003773 154.2745 205.8669 15.04544686702058"}, {"name": "SKYSAT-A", "line1": "1 39418U 13066C   26156.02176492  .00004138  00000+0  23740-3 0  9996", "line2": "2 39418  97.3816 205.8065 0021190   0.8700 359.2564 15.12906429686648"}, {"name": "DUBAISAT-2", "line1": "1 39419U 13066D   26156.14381816  .00003732  00000+0  23254-3 0  9997", "line2": "2 39419  97.4565 146.6049 0013169  76.5862 283.6834 15.10087307684574"}, {"name": "GPM-CORE", "line1": "1 39574U 14009C   26156.10431220  .00009226  00000+0  19662-3 0  9990", "line2": "2 39574  64.9729 348.6151 0012034 269.0170  90.9592 15.45399020695945"}, {"name": "SENTINEL-1A", "line1": "1 39634U 14016A   26156.16178775  .00000297  00000+0  72612-4 0  9998", "line2": "2 39634  98.1777 163.8698 0001417  80.8100 279.3260 14.59199616648263"}, {"name": "KAZEOSAT 1", "line1": "1 39731U 14024A   26156.15690461  .00000251  00000+0  89393-4 0  9999", "line2": "2 39731  98.3206 228.9025 0001511  76.8681 283.2678 14.42075333636828"}]