OBJECT_NAME,OBJECT_ID,EPOCH,MEAN_MOTION,ECCENTRICITY,INCLINATION,RA_OF_ASC_NODE,ARG_OF_PERICENTER,MEAN_ANOMALY,EPHEMERIS_TYPE,CLASSIFICATION_TYPE,NORAD_CAT_ID,ELEMENT_SET_NO,REV_AT_EPOCH,BSTAR,MEAN_MOTION_DOT,MEAN_MOTION_DDOT
DUBAISAT-1,2009-041B,2026-06-04T06:26:59.381376,14.75103282,.00116963,98.0036,288.6695,110.3318,249.9149,0,U,35682,999,90319,.17012455E-3,.1097E-4,0
OCEANSAT-2,2009-051A,2026-06-05T04:33:30.589632,13.99662816,.0014544,98.2322,144.2383,273.0051,86.9452,0,U,35931,999,87765,.15631E-3,.191E-5,0
WORLDVIEW-2 (WV-2),2009-055A,2026-06-05T01:20:22.034976,14.37895845,.0003176,98.4737,229.6724,253.4392,106.6446,0,U,35946,999,87390,.66928E-4,.158E-5,0
SMOS,2009-059A,2026-06-05T00:39:59.363424,14.39765937,.0001351,98.4426,343.5408,92.1515,267.9828,0,U,36036,999,87170,.10193E-3,.276E-5,0
YAOGAN-7,2009-069A,2026-06-04T16:47:36.747168,14.77996983,.0026007,98.0085,41.6431,80.1150,280.2994,0,U,36110,999,88778,.9417E-4,.63E-5,0
TANDEM-X,2010-030A,2026-06-01T10:46:51.497760,15.19149361,.00017833,97.4445,160.3804,80.8335,279.3101,0,U,36605,999,88425,.38591092E-4,.743E-5,0
CARTOSAT-2B,2010-035A,2026-06-05T03:49:02.092800,14.78645198,.0010295,97.9953,206.7844,225.4697,134.5674,0,U,36795,999,85807,.98766E-4,.671E-5,0
YAOGAN-10,2010-038A,2026-06-05T05:26:26.257056,14.85310536,.0001619,97.8975,179.7263,88.8225,340.0686,0,U,36834,999,85543,.22526E-3,.1882E-4,0
COSMO-SKYMED 4,2010-060A,2026-06-05T03:45:49.419072,14.82160670,.0001446,97.8884,339.9310,82.6824,277.4553,0,U,37216,999,84278,.94323E-4,.699E-5,0
RESOURCESAT-2,2011-015A,2026-06-05T01:17:08.694240,14.21603797,.0010181,98.7646,223.5787,294.5838,65.4278,0,U,37387,999,78445,.68797E-4,.107E-5,0
HAIYANG-2A,2011-043A,2026-06-05T05:54:06.429600,13.74586740,.000635,99.3390,159.1844,114.8945,245.2865,0,U,37781,999,74501,.20319E-3,.149E-5,0
RASAT,2011-044D,2026-06-05T04:29:52.122048,14.68155696,.0019391,98.0573,247.7672,228.3554,219.2051,0,U,37791,999,79142,.14815E-3,.805E-5,0
SRMSAT,2011-058D,2026-06-04T06:57:29.209824,14.11572942,.00119136,19.9702,137.5332,62.8275,26.7062,0,U,37841,999,75599,.69540005E-4,.393E-5,0
PLEIADES 1A,2011-076F,2026-06-05T04:38:34.211328,14.58563425,.0001472,98.1976,231.4567,98.7677,346.0603,0,U,38012,999,77024,.9488E-4,.395E-5,0
ZIYUAN 1-02C (ZY 1-02C),2011-079A,2026-06-05T04:24:09.438048,14.38204732,.0006259,98.4072,223.7420,355.7760,89.5207,0,U,38038,999,75748,.14843E-3,.408E-5,0
ARIRANG-3 (KOMPSAT-3),2012-025B,2026-06-05T04:39:36.635328,14.62195130,.00061,98.1171,113.8617,140.4528,219.7119,0,U,38338,999,74959,.10231E-3,.469E-5,0
EXACTVIEW-1 (ADS-1B),2012-039C,2026-06-05T02:14:36.233088,14.24980976,.0010499,98.9764,273.2113,201.1276,158.9470,0,U,38709,999,72098,.85083E-4,.153E-5,0
SPOT 6,2012-047A,2026-06-05T04:37:18.995808,14.58556047,.0001393,98.2120,223.6409,93.7638,266.3721,0,U,38755,999,73130,.10569E-3,.445E-5,0
PLEIADES 1B,2012-068A,2026-06-05T03:25:44.293728,14.58553150,.0001527,98.1946,231.3598,95.4247,264.7126,0,U,39019,999,71909,.98276E-4,.411E-5,0
GOKTURK 2,2012-073A,2026-06-05T03:29:44.694816,14.75530395,.0001987,97.6820,354.1804,63.0998,297.0415,0,U,39030,999,72273,.79017E-4,.491E-5,0
LANDSAT 8,2013-008A,2026-06-05T01:49:40.414080,14.57110594,.0001452,98.2303,226.3548,97.5582,262.5781,0,U,39084,999,69613,.97401E-4,.393E-5,0
SARAL,2013-009A,2026-06-05T02:23:47.356224,14.32852953,.0001397,98.5558,342.8204,1.8850,358.2339,0,U,39086,999,69387,.44994E-4,.79E-6,0
GAOFEN-1,2013-018A,2026-06-05T04:53:20.302944,14.76521644,.0016078,97.9095,228.5143,308.7290,51.2482,0,U,39150,999,70647,-.18541E-4,-.181E-5,0
VNREDSAT 1,2013-021B,2026-06-05T03:14:43.725984,14.64844418,.0001632,97.9081,210.0136,91.2433,268.8957,0,U,39160,999,69852,.14394E-3,.723E-5,0
ARIRANG-5 (KOMPSAT-5),2013-042A,2026-06-05T04:40:06.004416,15.04544686,.0003773,97.6204,343.0626,154.2745,205.8669,0,U,39227,999,70205,.15714E-3,.2142E-4,0
SKYSAT-A,2013-066C,2026-06-05T00:31:20.489088,15.12906429,.002119,97.3816,205.8065,0.8700,359.2564,0,U,39418,999,68664,.2374E-3,.4138E-4,0
DUBAISAT-2,2013-066D,2026-06-05T03:27:05.889024,15.10087307,.0013169,97.4565,146.6049,76.5862,283.6834,0,U,39419,999,68457,.23254E-3,.3732E-4,0
GPM-CORE,2014-009C,2026-06-05T02:30:12.574080,15.45399020,.0012034,64.9729,348.6151,269.0170,90.9592,0,U,39574,999,69594,.19662E-3,.9226E-4,0
SENTINEL-1A,2014-016A,2026-06-05T03:52:58.461600,14.59199616,.0001417,98.1777,163.8698,80.8100,279.3260,0,U,39634,999,64826,.72612E-4,.297E-5,0
KAZEOSAT 1,2014-024A,2026-06-05T03:45:56.558304,14.42075333,.0001511,98.3206,228.9025,76.8681,283.2678,0,U,39731,999,63682,.89393E-4,.251E-5,0
